{
  "type": "FeatureCollection",
  "features": [
    {
      "type": "Feature",
      "properties": {
        "norad_id": 31527,
        "name": "FENGYUN 1C DEB",
        "group": "fengyun-1c-debris",
        "lat": -3.8312030348586816,
        "lon": -19.622207526838267,
        "alt_km": 1170.9381816671603,
        "timestamp": "2025-12-22T20:43:46.131334+00:00",
        "meta_object_name": "FENGYUN 1C DEB",
        "meta_object_id": "1999-025BXS",
        "meta_epoch": "2025-12-22T10:40:48.323136",
        "meta_mean_motion": 13.23411425,
        "meta_eccentricity": 0.04495211,
        "meta_inclination": 98.8916,
        "meta_ra_of_asc_node": 160.6201,
        "meta_arg_of_pericenter": 276.6803,
        "meta_mean_anomaly": 78.3367,
        "meta_ephemeris_type": 0,
        "meta_classification_type": "U",
        "meta_norad_cat_id": 31527,
        "meta_element_set_no": 999,
        "meta_rev_at_epoch": 90318,
        "meta_bstar": 0.00065377529,
        "meta_mean_motion_dot": 4.35e-06,
        "meta_mean_motion_ddot": 0,
        "tle_line1": "1 31527U 99025BXS 25356.44500374  .00000435  00000+0  65378-3 0  9994",
        "tle_line2": "2 31527  98.8916 160.6201 0449521 276.6803  78.3367 13.23411425903185"
      },
      "geometry": {
        "type": "Point",
        "coordinates": [
          -19.622207526838267,
          -3.8312030348586816
        ]
      }
    },
    {
      "type": "Feature",
      "properties": {
        "norad_id": 31531,
        "name": "FENGYUN 1C DEB",
        "group": "fengyun-1c-debris",
        "lat": -41.283985427110046,
        "lon": -146.07383581193025,
        "alt_km": 611.7904680197644,
        "timestamp": "2025-12-22T20:43:46.131344+00:00",
        "meta_object_name": "FENGYUN 1C DEB",
        "meta_object_id": "1999-025BXW",
        "meta_epoch": "2025-12-15T20:25:10.111008",
        "meta_mean_motion": 14.35669626,
        "meta_eccentricity": 0.02439564,
        "meta_inclination": 98.3829,
        "meta_ra_of_asc_node": 34.5409,
        "meta_arg_of_pericenter": 259.2903,
        "meta_mean_anomaly": 98.0732,
        "meta_ephemeris_type": 0,
        "meta_classification_type": "U",
        "meta_norad_cat_id": 31531,
        "meta_element_set_no": 999,
        "meta_rev_at_epoch": 63979,
        "meta_bstar": 0.00065093757,
        "meta_mean_motion_dot": 2.583e-05,
        "meta_mean_motion_ddot": 0,
        "tle_line1": "1 31531U 99025BXW 25349.85081147  .00002583  00000+0  65094-3 0  9999",
        "tle_line2": "2 31531  98.3829  34.5409 0243956 259.2903  98.0732 14.35669626639799"
      },
      "geometry": {
        "type": "Point",
        "coordinates": [
          -146.07383581193025,
          -41.283985427110046
        ]
      }
    },
    {
      "type": "Feature",
      "properties": {
        "norad_id": 31533,
        "name": "FENGYUN 1C DEB",
        "group": "fengyun-1c-debris",
        "lat": 78.91181138053058,
        "lon": 122.88824948093765,
        "alt_km": 825.8754221699801,
        "timestamp": "2025-12-22T20:43:46.131354+00:00",
        "meta_object_name": "FENGYUN 1C DEB",
        "meta_object_id": "1999-025BXY",
        "meta_epoch": "2025-12-22T11:52:08.553216",
        "meta_mean_motion": 14.27646765,
        "meta_eccentricity": 0.0065133,
        "meta_inclination": 98.9605,
        "meta_ra_of_asc_node": 248.8914,
        "meta_arg_of_pericenter": 321.3322,
        "meta_mean_anomaly": 38.3204,
        "meta_ephemeris_type": 0,
        "meta_classification_type": "U",
        "meta_norad_cat_id": 31533,
        "meta_element_set_no": 999,
        "meta_rev_at_epoch": 66262,
        "meta_bstar": 0.00037216434,
        "meta_mean_motion_dot": 8.91e-06,
        "meta_mean_motion_ddot": 0,
        "tle_line1": "1 31533U 99025BXY 25356.49454344  .00000891  00000+0  37216-3 0  9997",
        "tle_line2": "2 31533  98.9605 248.8914 0065133 321.3322  38.3204 14.27646765662624"
      },
      "geometry": {
        "type": "Point",
        "coordinates": [
          122.88824948093765,
          78.91181138053058
        ]
      }
    },
    {
      "type": "Feature",
      "properties": {
        "norad_id": 31535,
        "name": "FENGYUN 1C DEB",
        "group": "fengyun-1c-debris",
        "lat": 78.75566062273444,
        "lon": 71.26369667144691,
        "alt_km": 738.0530713272083,
        "timestamp": "2025-12-22T20:43:46.131364+00:00",
        "meta_object_name": "FENGYUN 1C DEB",
        "meta_object_id": "1999-025BYA",
        "meta_epoch": "2025-12-08T20:01:31.264032",
        "meta_mean_motion": 14.28309987,
        "meta_eccentricity": 0.00876599,
        "meta_inclination": 98.0348,
        "meta_ra_of_asc_node": 193.0693,
        "meta_arg_of_pericenter": 174.5726,
        "meta_mean_anomaly": 185.6428,
        "meta_ephemeris_type": 0,
        "meta_classification_type": "U",
        "meta_norad_cat_id": 31535,
        "meta_element_set_no": 999,
        "meta_rev_at_epoch": 71875,
        "meta_bstar": 0.0012494375,
        "meta_mean_motion_dot": 3.212e-05,
        "meta_mean_motion_ddot": 0,
        "tle_line1": "1 31535U 99025BYA 25342.83438963  .00003212  00000+0  12494-2 0  9991",
        "tle_line2": "2 31535  98.0348 193.0693 0087659 174.5726 185.6428 14.28309987718752"
      },
      "geometry": {
        "type": "Point",
        "coordinates": [
          71.26369667144691,
          78.75566062273444
        ]
      }
    },
    {
      "type": "Feature",
      "properties": {
        "norad_id": 31536,
        "name": "FENGYUN 1C DEB",
        "group": "fengyun-1c-debris",
        "lat": 4.112662809469844,
        "lon": 84.69544097805804,
        "alt_km": 611.529550513279,
        "timestamp": "2025-12-22T20:43:46.131374+00:00",
        "meta_object_name": "FENGYUN 1C DEB",
        "meta_object_id": "1999-025BYB",
        "meta_epoch": "2025-12-22T11:41:46.860288",
        "meta_mean_motion": 14.54432625,
        "meta_eccentricity": 0.02945683,
        "meta_inclination": 98.2368,
        "meta_ra_of_asc_node": 263.7275,
        "meta_arg_of_pericenter": 114.6648,
        "meta_mean_anomaly": 248.5527,
        "meta_ephemeris_type": 0,
        "meta_classification_type": "U",
        "meta_norad_cat_id": 31536,
        "meta_element_set_no": 999,
        "meta_rev_at_epoch": 96399,
        "meta_bstar": 0.00093265684,
        "meta_mean_motion_dot": 7.069e-05,
        "meta_mean_motion_ddot": 0,
        "tle_line1": "1 31536U 99025BYB 25356.48734792  .00007069  00000+0  93266-3 0  9998",
        "tle_line2": "2 31536  98.2368 263.7275 0294568 114.6648 248.5527 14.54432625963997"
      },
      "geometry": {
        "type": "Point",
        "coordinates": [
          84.69544097805804,
          4.112662809469844
        ]
      }
    },
    {
      "type": "Feature",
      "properties": {
        "norad_id": 31537,
        "name": "FENGYUN 1C DEB",
        "group": "fengyun-1c-debris",
        "lat": 30.58627003472892,
        "lon": 145.0002558090808,
        "alt_km": 837.4687537863138,
        "timestamp": "2025-12-22T20:43:46.131385+00:00",
        "meta_object_name": "FENGYUN 1C DEB",
        "meta_object_id": "1999-025BYC",
        "meta_epoch": "2025-12-19T16:30:43.612128",
        "meta_mean_motion": 14.2041752,
        "meta_eccentricity": 0.03488521,
        "meta_inclination": 99.2936,
        "meta_ra_of_asc_node": 147.2111,
        "meta_arg_of_pericenter": 304.6458,
        "meta_mean_anomaly": 52.2285,
        "meta_ephemeris_type": 0,
        "meta_classification_type": "U",
        "meta_norad_cat_id": 31537,
        "meta_element_set_no": 999,
        "meta_rev_at_epoch": 93380,
        "meta_bstar": 0.0014793141,
        "meta_mean_motion_dot": 5.816e-05,
        "meta_mean_motion_ddot": 0,
        "tle_line1": "1 31537U 99025BYC 25353.68800477  .00005816  00000+0  14793-2 0  9997",
        "tle_line2": "2 31537  99.2936 147.2111 0348852 304.6458  52.2285 14.20417520933809"
      },
      "geometry": {
        "type": "Point",
        "coordinates": [
          145.0002558090808,
          30.58627003472892
        ]
      }
    },
    {
      "type": "Feature",
      "properties": {
        "norad_id": 31540,
        "name": "FENGYUN 1C DEB",
        "group": "fengyun-1c-debris",
        "lat": -32.45292880191857,
        "lon": -28.49657572140284,
        "alt_km": 612.5209483573472,
        "timestamp": "2025-12-22T20:43:46.131395+00:00",
        "meta_object_name": "FENGYUN 1C DEB",
        "meta_object_id": "1999-025BYF",
        "meta_epoch": "2025-12-20T03:50:13.941312",
        "meta_mean_motion": 14.65461728,
        "meta_eccentricity": 0.01765212,
        "meta_inclination": 99.0562,
        "meta_ra_of_asc_node": 154.3463,
        "meta_arg_of_pericenter": 278.2457,
        "meta_mean_anomaly": 79.8759,
        "meta_ephemeris_type": 0,
        "meta_classification_type": "U",
        "meta_norad_cat_id": 31540,
        "meta_element_set_no": 999,
        "meta_rev_at_epoch": 98410,
        "meta_bstar": 0.0005650508,
        "meta_mean_motion_dot": 3.781e-05,
        "meta_mean_motion_ddot": 0,
        "tle_line1": "1 31540U 99025BYF 25354.15988358  .00003781  00000+0  56505-3 0  9996",
        "tle_line2": "2 31540  99.0562 154.3463 0176521 278.2457  79.8759 14.65461728984100"
      },
      "geometry": {
        "type": "Point",
        "coordinates": [
          -28.49657572140284,
          -32.45292880191857
        ]
      }
    }
  ]
}